[
  {
    "OBJECT_NAME": "STARLINK-4545",
    "OBJECT_ID": "22097AK",
    "EPOCH": "2025-11-11T05:49:49.813824",
    "MEAN_MOTION": 15.08846174,
    "ECCENTRICITY": 0.0001381,
    "INCLINATION": 53.2174,
    "RA_OF_ASC_NODE": 285.8499,
    "ARG_OF_PERICENTER": 86.629,
    "MEAN_ANOMALY": 273.4861,
    "EPHEMERIS_TYPE": 0,
    "CLASSIFICATION_TYPE": "U",
    "NORAD_CAT_ID": 53421,
    "ELEMENT_SET_NO": 999,
    "REV_AT_EPOCH": 18074,
    "BSTAR": 0.00012138,
    "MEAN_MOTION_DOT": 1.645e-05,
    "MEAN_MOTION_DDOT": 0.0,
    "TLE_LINE1": "1 53421U 22097AK  25315.24293766  .00001645  00000+0  12138-3 0  9993",
    "TLE_LINE2": "2 53421  53.2174 285.8499 0001381  86.6290 273.4861 15.08846174180743",
    "COMMENT": "Grouped by shell and plane from TLE"
  },
  {
    "OBJECT_NAME": "STARLINK-4546",
    "OBJECT_ID": "22097AL",
    "EPOCH": "2025-11-11T05:28:38.480160",
    "MEAN_MOTION": 15.08837178,
    "ECCENTRICITY": 0.0001352,
    "INCLINATION": 53.2175,
    "RA_OF_ASC_NODE": 285.9154,
    "ARG_OF_PERICENTER": 93.4759,
    "MEAN_ANOMALY": 266.6387,
    "EPHEMERIS_TYPE": 0,
    "CLASSIFICATION_TYPE": "U",
    "NORAD_CAT_ID": 53422,
    "ELEMENT_SET_NO": 999,
    "REV_AT_EPOCH": 18076,
    "BSTAR": 3.4467e-05,
    "MEAN_MOTION_DOT": 2.61e-06,
    "MEAN_MOTION_DDOT": 0.0,
    "TLE_LINE1": "1 53422U 22097AL  25315.22822315  .00000261  00000+0  34467-4 0  9993",
    "TLE_LINE2": "2 53422  53.2175 285.9154 0001352  93.4759 266.6387 15.08837178180761",
    "COMMENT": "Grouped by shell and plane from TLE"
  },
  {
    "OBJECT_NAME": "STARLINK-4539",
    "OBJECT_ID": "22097AM",
    "EPOCH": "2025-11-11T05:45:54.638208",
    "MEAN_MOTION": 15.088435,
    "ECCENTRICITY": 0.000136,
    "INCLINATION": 53.2186,
    "RA_OF_ASC_NODE": 285.8708,
    "ARG_OF_PERICENTER": 92.5408,
    "MEAN_ANOMALY": 267.574,
    "EPHEMERIS_TYPE": 0,
    "CLASSIFICATION_TYPE": "U",
    "NORAD_CAT_ID": 53423,
    "ELEMENT_SET_NO": 999,
    "REV_AT_EPOCH": 18074,
    "BSTAR": 9.3016e-05,
    "MEAN_MOTION_DOT": 1.193e-05,
    "MEAN_MOTION_DDOT": 0.0,
    "TLE_LINE1": "1 53423U 22097AM  25315.24021572  .00001193  00000+0  93016-4 0  9992",
    "TLE_LINE2": "2 53423  53.2186 285.8708 0001360  92.5408 267.5740 15.08843500180745",
    "COMMENT": "Grouped by shell and plane from TLE"
  },
  {
    "OBJECT_NAME": "STARLINK-4532",
    "OBJECT_ID": "22097AN",
    "EPOCH": "2025-11-11T06:53:25.261152",
    "MEAN_MOTION": 15.088377,
    "ECCENTRICITY": 0.0001423,
    "INCLINATION": 53.2186,
    "RA_OF_ASC_NODE": 285.6516,
    "ARG_OF_PERICENTER": 101.8393,
    "MEAN_ANOMALY": 258.2759,
    "EPHEMERIS_TYPE": 0,
    "CLASSIFICATION_TYPE": "U",
    "NORAD_CAT_ID": 53424,
    "ELEMENT_SET_NO": 999,
    "REV_AT_EPOCH": 18077,
    "BSTAR": 7.13e-05,
    "MEAN_MOTION_DOT": 8.47e-06,
    "MEAN_MOTION_DDOT": 0.0,
    "TLE_LINE1": "1 53424U 22097AN  25315.28709793  .00000847  00000+0  71300-4 0  9992",
    "TLE_LINE2": "2 53424  53.2186 285.6516 0001423 101.8393 258.2759 15.08837700180773",
    "COMMENT": "Grouped by shell and plane from TLE"
  },
  {
    "OBJECT_NAME": "STARLINK-4531",
    "OBJECT_ID": "22097AP",
    "EPOCH": "2025-11-11T07:09:19.195776",
    "MEAN_MOTION": 15.08840047,
    "ECCENTRICITY": 0.0001448,
    "INCLINATION": 53.2182,
    "RA_OF_ASC_NODE": 285.601,
    "ARG_OF_PERICENTER": 89.6824,
    "MEAN_ANOMALY": 270.4334,
    "EPHEMERIS_TYPE": 0,
    "CLASSIFICATION_TYPE": "U",
    "NORAD_CAT_ID": 53425,
    "ELEMENT_SET_NO": 999,
    "REV_AT_EPOCH": 18074,
    "BSTAR": 0.00010061,
    "MEAN_MOTION_DOT": 1.314e-05,
    "MEAN_MOTION_DDOT": 0.0,
    "TLE_LINE1": "1 53425U 22097AP  25315.29813884  .00001314  00000+0  10061-3 0  9997",
    "TLE_LINE2": "2 53425  53.2182 285.6010 0001448  89.6824 270.4334 15.08840047180748",
    "COMMENT": "Grouped by shell and plane from TLE"
  },
  {
    "OBJECT_NAME": "STARLINK-5749",
    "OBJECT_ID": "23020A",
    "EPOCH": "2025-11-11T06:47:47.573664",
    "MEAN_MOTION": 15.02528182,
    "ECCENTRICITY": 0.0001052,
    "INCLINATION": 43.0042,
    "RA_OF_ASC_NODE": 288.3931,
    "ARG_OF_PERICENTER": 259.943,
    "MEAN_ANOMALY": 100.1293,
    "EPHEMERIS_TYPE": 0,
    "CLASSIFICATION_TYPE": "U",
    "NORAD_CAT_ID": 55569,
    "ELEMENT_SET_NO": 999,
    "REV_AT_EPOCH": 15217,
    "BSTAR": 0.0,
    "MEAN_MOTION_DOT": -9.85e-06,
    "MEAN_MOTION_DDOT": 0.0,
    "TLE_LINE1": "1 55569U 23020A   25315.28318951 -.00000985  00000+0 -57902-4 0  9990",
    "TLE_LINE2": "2 55569  43.0042 288.3931 0001052 259.9430 100.1293 15.02528182152175",
    "COMMENT": "Grouped by shell and plane from TLE"
  },
  {
    "OBJECT_NAME": "STARLINK-5737",
    "OBJECT_ID": "23020B",
    "EPOCH": "2025-11-11T06:50:57.806592",
    "MEAN_MOTION": 15.02536173,
    "ECCENTRICITY": 0.0001105,
    "INCLINATION": 43.0044,
    "RA_OF_ASC_NODE": 288.4106,
    "ARG_OF_PERICENTER": 274.1601,
    "MEAN_ANOMALY": 85.9115,
    "EPHEMERIS_TYPE": 0,
    "CLASSIFICATION_TYPE": "U",
    "NORAD_CAT_ID": 55570,
    "ELEMENT_SET_NO": 999,
    "REV_AT_EPOCH": 15110,
    "BSTAR": 0.00017385,
    "MEAN_MOTION_DOT": 2.145e-05,
    "MEAN_MOTION_DDOT": 0.0,
    "TLE_LINE1": "1 55570U 23020B   25315.28539128  .00002145  00000+0  17385-3 0  9991",
    "TLE_LINE2": "2 55570  43.0044 288.4106 0001105 274.1601  85.9115 15.02536173151106",
    "COMMENT": "Grouped by shell and plane from TLE"
  },
  {
    "OBJECT_NAME": "STARLINK-5739",
    "OBJECT_ID": "23020C",
    "EPOCH": "2025-11-11T00:20:03.846624",
    "MEAN_MOTION": 15.02540149,
    "ECCENTRICITY": 0.0001101,
    "INCLINATION": 43.0041,
    "RA_OF_ASC_NODE": 289.812,
    "ARG_OF_PERICENTER": 257.0155,
    "MEAN_ANOMALY": 103.0564,
    "EPHEMERIS_TYPE": 0,
    "CLASSIFICATION_TYPE": "U",
    "NORAD_CAT_ID": 55571,
    "ELEMENT_SET_NO": 999,
    "REV_AT_EPOCH": 15106,
    "BSTAR": 0.0,
    "MEAN_MOTION_DOT": -2.142e-05,
    "MEAN_MOTION_DDOT": 0.0,
    "TLE_LINE1": "1 55571U 23020C   25315.01393341 -.00002142  00000+0 -14354-3 0  9990",
    "TLE_LINE2": "2 55571  43.0041 289.8120 0001101 257.0155 103.0564 15.02540149151068",
    "COMMENT": "Grouped by shell and plane from TLE"
  },
  {
    "OBJECT_NAME": "STARLINK-5732",
    "OBJECT_ID": "23020D",
    "EPOCH": "2025-11-11T06:36:35.119872",
    "MEAN_MOTION": 15.02536741,
    "ECCENTRICITY": 0.0001083,
    "INCLINATION": 43.0045,
    "RA_OF_ASC_NODE": 288.3351,
    "ARG_OF_PERICENTER": 262.7986,
    "MEAN_ANOMALY": 97.2733,
    "EPHEMERIS_TYPE": 0,
    "CLASSIFICATION_TYPE": "U",
    "NORAD_CAT_ID": 55572,
    "ELEMENT_SET_NO": 999,
    "REV_AT_EPOCH": 15110,
    "BSTAR": 0.00014111,
    "MEAN_MOTION_DOT": 1.703e-05,
    "MEAN_MOTION_DDOT": 0.0,
    "TLE_LINE1": "1 55572U 23020D   25315.27540648  .00001703  00000+0  14111-3 0  9994",
    "TLE_LINE2": "2 55572  43.0045 288.3351 0001083 262.7986  97.2733 15.02536741151107",
    "COMMENT": "Grouped by shell and plane from TLE"
  },
  {
    "OBJECT_NAME": "STARLINK-5738",
    "OBJECT_ID": "23020E",
    "EPOCH": "2025-11-11T05:02:27.118176",
    "MEAN_MOTION": 15.02537377,
    "ECCENTRICITY": 0.0001363,
    "INCLINATION": 43.0045,
    "RA_OF_ASC_NODE": 288.7055,
    "ARG_OF_PERICENTER": 268.4163,
    "MEAN_ANOMALY": 91.6523,
    "EPHEMERIS_TYPE": 0,
    "CLASSIFICATION_TYPE": "U",
    "NORAD_CAT_ID": 55573,
    "ELEMENT_SET_NO": 999,
    "REV_AT_EPOCH": 15109,
    "BSTAR": 0.00019583,
    "MEAN_MOTION_DOT": 2.443e-05,
    "MEAN_MOTION_DDOT": 0.0,
    "TLE_LINE1": "1 55573U 23020E   25315.21003609  .00002443  00000+0  19583-3 0  9990",
    "TLE_LINE2": "2 55573  43.0045 288.7055 0001363 268.4163  91.6523 15.02537377151093",
    "COMMENT": "Grouped by shell and plane from TLE"
  },
  {
    "OBJECT_NAME": "STARLINK-5747",
    "OBJECT_ID": "23020F",
    "EPOCH": "2025-11-11T00:00:53.002080",
    "MEAN_MOTION": 15.02546984,
    "ECCENTRICITY": 9.49e-05,
    "INCLINATION": 43.0048,
    "RA_OF_ASC_NODE": 289.712,
    "ARG_OF_PERICENTER": 271.092,
    "MEAN_ANOMALY": 88.9814,
    "EPHEMERIS_TYPE": 0,
    "CLASSIFICATION_TYPE": "U",
    "NORAD_CAT_ID": 55574,
    "ELEMENT_SET_NO": 999,
    "REV_AT_EPOCH": 15106,
    "BSTAR": 0.0,
    "MEAN_MOTION_DOT": -7.6e-06,
    "MEAN_MOTION_DDOT": 0.0,
    "TLE_LINE1": "1 55574U 23020F   25315.00061345 -.00000760  00000+0 -41205-4 0  9998",
    "TLE_LINE2": "2 55574  43.0048 289.7120 0000949 271.0920  88.9814 15.02546984151064",
    "COMMENT": "Grouped by shell and plane from TLE"
  },
  {
    "OBJECT_NAME": "STARLINK-5745",
    "OBJECT_ID": "23020G",
    "EPOCH": "2025-11-11T04:56:01.682592",
    "MEAN_MOTION": 15.02556598,
    "ECCENTRICITY": 0.0001015,
    "INCLINATION": 43.0023,
    "RA_OF_ASC_NODE": 288.6683,
    "ARG_OF_PERICENTER": 252.3582,
    "MEAN_ANOMALY": 107.715,
    "EPHEMERIS_TYPE": 0,
    "CLASSIFICATION_TYPE": "U",
    "NORAD_CAT_ID": 55575,
    "ELEMENT_SET_NO": 999,
    "REV_AT_EPOCH": 15109,
    "BSTAR": 0.00021694,
    "MEAN_MOTION_DOT": 2.73e-05,
    "MEAN_MOTION_DDOT": 0.0,
    "TLE_LINE1": "1 55575U 23020G   25315.20557503  .00002730  00000+0  21694-3 0  9993",
    "TLE_LINE2": "2 55575  43.0023 288.6683 0001015 252.3582 107.7150 15.02556598151099",
    "COMMENT": "Grouped by shell and plane from TLE"
  },
  {
    "OBJECT_NAME": "STARLINK-5752",
    "OBJECT_ID": "23020J",
    "EPOCH": "2025-11-11T00:04:03.751680",
    "MEAN_MOTION": 15.02537022,
    "ECCENTRICITY": 0.0001485,
    "INCLINATION": 43.0046,
    "RA_OF_ASC_NODE": 289.6637,
    "ARG_OF_PERICENTER": 275.7237,
    "MEAN_ANOMALY": 84.3437,
    "EPHEMERIS_TYPE": 0,
    "CLASSIFICATION_TYPE": "U",
    "NORAD_CAT_ID": 55577,
    "ELEMENT_SET_NO": 999,
    "REV_AT_EPOCH": 15106,
    "BSTAR": 1.8142e-05,
    "MEAN_MOTION_DOT": 4.1e-07,
    "MEAN_MOTION_DDOT": 0.0,
    "TLE_LINE1": "1 55577U 23020J   25315.00282120  .00000041  00000+0  18142-4 0  9991",
    "TLE_LINE2": "2 55577  43.0046 289.6637 0001485 275.7237  84.3437 15.02537022151069",
    "COMMENT": "Grouped by shell and plane from TLE"
  }
]